sat17295
1 17295U 87003A   20046.87994463  .00000666  00000-0  33608-4 0  9996
2 17295  82.5124 266.3027 0003752  23.1054 337.0347 15.15441755806151
